start=new Date('2023-02-11T00:00:00.000Z').valueOf();
sats=[{"ECCENTRICITY":"0.00013720","MEAN_MOTION_DOT":"0.00000868","MEAN_ELEMENT_THEORY":"SGP4","TLE_LINE1":"1 45583U 20025BE  23041.81211911  .00000868  00000-0  77164-4 0  9999","ELEMENT_SET_NO":"999","MEAN_MOTION_DDOT":"0.0000000000000","TLE_LINE2":"2 45583  53.0533  77.4204 0001372  71.0133 289.1005 15.06394303156267","REF_FRAME":"TEME","FILE":"3785071","NORAD_CAT_ID":"45583","TIME_SYSTEM":"UTC","RA_OF_ASC_NODE":"77.4204","ARG_OF_PERICENTER":"71.0133","OBJECT_NAME":"STARLINK-1340","CLASSIFICATION_TYPE":"U","BSTAR":"0.00007716400000","SEMIMAJOR_AXIS":"6925.366","PERIAPSIS":"546.281","APOAPSIS":"548.181","LAUNCH_DATE":"2020-04-22","EPHEMERIS_TYPE":"0","OBJECT_ID":"2020-025BE","DECAY_DATE":null,"EPOCH":"2023-02-10T19:29:27.091104","MEAN_MOTION":"15.06394303","REV_AT_EPOCH":"15626","COUNTRY_CODE":"US","CENTER_NAME":"EARTH","SITE":"AFETR","INCLINATION":"53.0533","PERIOD":"95.593","RCS_SIZE":"LARGE","MEAN_ANOMALY":"289.1005","OBJECT_TYPE":"PAYLOAD","GP_ID":"225066778"},{"TLE_LINE2":"2 45584  53.0525  77.4624 0001587 105.1568 254.9597 15.06401536156267","ELEMENT_SET_NO":"999","MEAN_MOTION_DDOT":"0.0000000000000","NORAD_CAT_ID":"45584","TIME_SYSTEM":"UTC","FILE":"3785071","REF_FRAME":"TEME","ARG_OF_PERICENTER":"105.1568","RA_OF_ASC_NODE":"77.4624","ECCENTRICITY":"0.00015870","MEAN_MOTION_DOT":"0.00012236","TLE_LINE1":"1 45584U 20025BF  23041.80011511  .00012236  00000-0  83886-3 0  9992","MEAN_ELEMENT_THEORY":"SGP4","CENTER_NAME":"EARTH","REV_AT_EPOCH":"15626","COUNTRY_CODE":"US","RCS_SIZE":"LARGE","PERIOD":"95.592","MEAN_ANOMALY":"254.9597","INCLINATION":"53.0525","SITE":"AFETR","GP_ID":"225067526","OBJECT_TYPE":"PAYLOAD","BSTAR":"0.00083886000000","SEMIMAJOR_AXIS":"6925.344","CLASSIFICATION_TYPE":"U","OBJECT_NAME":"STARLINK-1343","LAUNCH_DATE":"2020-04-22","APOAPSIS":"548.308","PERIAPSIS":"546.110","OBJECT_ID":"2020-025BF","EPHEMERIS_TYPE":"0","EPOCH":"2023-02-10T19:12:09.945504","MEAN_MOTION":"15.06401536","DECAY_DATE":null},{"CLASSIFICATION_TYPE":"U","OBJECT_NAME":"STARLINK-1347","SEMIMAJOR_AXIS":"6925.280","BSTAR":"0.00096463000000","PERIAPSIS":"545.808","LAUNCH_DATE":"2020-04-22","APOAPSIS":"548.481","EPHEMERIS_TYPE":"0","OBJECT_ID":"2020-025BH","DECAY_DATE":null,"EPOCH":"2023-02-10T19:45:23.152896","MEAN_MOTION":"15.06422436","REV_AT_EPOCH":"15625","COUNTRY_CODE":"US","CENTER_NAME":"EARTH","INCLINATION":"53.0512","SITE":"AFETR","PERIOD":"95.591","RCS_SIZE":"LARGE","MEAN_ANOMALY":"279.9128","OBJECT_TYPE":"PAYLOAD","GP_ID":"225067778","ECCENTRICITY":"0.00019300","MEAN_MOTION_DOT":"0.00014124","MEAN_ELEMENT_THEORY":"SGP4","TLE_LINE1":"1 45586U 20025BH  23041.82318464  .00014124  00000-0  96463-3 0  9996","ELEMENT_SET_NO":"999","MEAN_MOTION_DDOT":"0.0000000000000","TLE_LINE2":"2 45586  53.0512  77.3617 0001930  80.2079 279.9128 15.06422436156256","REF_FRAME":"TEME","FILE":"3785071","NORAD_CAT_ID":"45586","TIME_SYSTEM":"UTC","RA_OF_ASC_NODE":"77.3617","ARG_OF_PERICENTER":"80.2079"},{"TLE_LINE1":"1 45587U 20025BJ  23041.79368769 -.00000579  00000-0 -19947-4 0  9990","MEAN_ELEMENT_THEORY":"SGP4","MEAN_MOTION_DOT":"-0.00000579","ECCENTRICITY":"0.00017280","RA_OF_ASC_NODE":"77.5004","ARG_OF_PERICENTER":"81.2459","REF_FRAME":"TEME","FILE":"3785071","NORAD_CAT_ID":"45587","TIME_SYSTEM":"UTC","ELEMENT_SET_NO":"999","MEAN_MOTION_DDOT":"0.0000000000000","TLE_LINE2":"2 45587  53.0564  77.5004 0001728  81.2459 278.8726 15.06399719156264","DECAY_DATE":null,"MEAN_MOTION":"15.06399719","EPOCH":"2023-02-10T19:02:54.616416","EPHEMERIS_TYPE":"0","OBJECT_ID":"2020-025BJ","PERIAPSIS":"546.018","LAUNCH_DATE":"2020-04-22","APOAPSIS":"548.411","OBJECT_NAME":"STARLINK-1349","CLASSIFICATION_TYPE":"U","SEMIMAJOR_AXIS":"6925.349","BSTAR":"-0.00001994700000","OBJECT_TYPE":"PAYLOAD","GP_ID":"225068025","INCLINATION":"53.0564","SITE":"AFETR","MEAN_ANOMALY":"278.8726","RCS_SIZE":"LARGE","PERIOD":"95.592","REV_AT_EPOCH":"15626","COUNTRY_CODE":"US","CENTER_NAME":"EARTH"},{"EPHEMERIS_TYPE":"0","OBJECT_ID":"2020-025BK","EPOCH":"2023-02-10T07:22:17.226048","MEAN_MOTION":"15.06396673","DECAY_DATE":null,"BSTAR":"0.00014104000000","SEMIMAJOR_AXIS":"6925.359","CLASSIFICATION_TYPE":"U","OBJECT_NAME":"STARLINK-1360","LAUNCH_DATE":"2020-04-22","APOAPSIS":"548.396","PERIAPSIS":"546.051","MEAN_ANOMALY":"277.3747","RCS_SIZE":"LARGE","PERIOD":"95.592","SITE":"AFETR","INCLINATION":"53.0563","OBJECT_TYPE":"PAYLOAD","GP_ID":"225067278","COUNTRY_CODE":"US","REV_AT_EPOCH":"15618","CENTER_NAME":"EARTH","MEAN_MOTION_DOT":"0.00001820","MEAN_ELEMENT_THEORY":"SGP4","TLE_LINE1":"1 45588U 20025BK  23041.30714382  .00001820  00000-0  14104-3 0  9991","ECCENTRICITY":"0.00016930","FILE":"3785071","REF_FRAME":"TEME","NORAD_CAT_ID":"45588","TIME_SYSTEM":"UTC","RA_OF_ASC_NODE":"79.6770","ARG_OF_PERICENTER":"82.7434","TLE_LINE2":"2 45588  53.0563  79.6770 0001693  82.7434 277.3747 15.06396673156181","MEAN_MOTION_DDOT":"0.0000000000000","ELEMENT_SET_NO":"999"},{"CENTER_NAME":"EARTH","COUNTRY_CODE":"US","REV_AT_EPOCH":"15626","GP_ID":"225067029","OBJECT_TYPE":"PAYLOAD","INCLINATION":"53.0538","SITE":"AFETR","PERIOD":"95.593","RCS_SIZE":"LARGE","MEAN_ANOMALY":"262.3902","PERIAPSIS":"546.289","APOAPSIS":"548.177","LAUNCH_DATE":"2020-04-22","OBJECT_NAME":"STARLINK-1364","CLASSIFICATION_TYPE":"U","BSTAR":"0.00004176400000","SEMIMAJOR_AXIS":"6925.368","DECAY_DATE":null,"EPOCH":"2023-02-10T20:01:17.863392","MEAN_MOTION":"15.06393711","OBJECT_ID":"2020-025BL","EPHEMERIS_TYPE":"0","ELEMENT_SET_NO":"999","MEAN_MOTION_DDOT":"0.0000000000000","TLE_LINE2":"2 45589  53.0538  77.3189 0001363  97.7241 262.3902 15.06393711156265","ARG_OF_PERICENTER":"97.7241","RA_OF_ASC_NODE":"77.3189","NORAD_CAT_ID":"45589","TIME_SYSTEM":"UTC","REF_FRAME":"TEME","FILE":"3785071","ECCENTRICITY":"0.00013630","TLE_LINE1":"1 45589U 20025BL  23041.83423453  .00000341  00000-0  41764-4 0  9996","MEAN_ELEMENT_THEORY":"SGP4","MEAN_MOTION_DOT":"0.00000341"},{"OBJECT_NAME":"STARLINK-1365","CLASSIFICATION_TYPE":"U","BSTAR":"0.00171950000000","SEMIMAJOR_AXIS":"6925.413","PERIAPSIS":"546.067","LAUNCH_DATE":"2020-04-22","APOAPSIS":"548.489","OBJECT_ID":"2020-025BM","EPHEMERIS_TYPE":"0","DECAY_DATE":null,"MEAN_MOTION":"15.06378992","EPOCH":"2023-02-10T10:50:38.203584","CENTER_NAME":"EARTH","COUNTRY_CODE":"US","REV_AT_EPOCH":"15580","SITE":"AFETR","INCLINATION":"53.0528","RCS_SIZE":"LARGE","MEAN_ANOMALY":"281.6834","PERIOD":"95.593","GP_ID":"225068278","OBJECT_TYPE":"PAYLOAD","ECCENTRICITY":"0.00017490","MEAN_MOTION_DOT":"0.00025409","TLE_LINE1":"1 45590U 20025BM  23041.45183106  .00025409  00000-0  17195-2 0  9995","MEAN_ELEMENT_THEORY":"SGP4","ELEMENT_SET_NO":"999","MEAN_MOTION_DDOT":"0.0000000000000","TLE_LINE2":"2 45590  53.0528 109.0274 0001749  78.4352 281.6834 15.06378992155802","TIME_SYSTEM":"UTC","NORAD_CAT_ID":"45590","FILE":"3785071","REF_FRAME":"TEME","ARG_OF_PERICENTER":"78.4352","RA_OF_ASC_NODE":"109.0274"},{"ARG_OF_PERICENTER":"117.5395","RA_OF_ASC_NODE":"68.8467","NORAD_CAT_ID":"45658","TIME_SYSTEM":"UTC","FILE":"3785071","REF_FRAME":"TEME","MEAN_MOTION_DDOT":"0.0000000000000","ELEMENT_SET_NO":"999","TLE_LINE2":"2 45658  53.0569  68.8467 0001978 117.5395 242.5795 15.06410909149444","MEAN_ELEMENT_THEORY":"SGP4","TLE_LINE1":"1 45658U 20035B   23041.49235005  .00001601  00000-0  12630-3 0  9999","MEAN_MOTION_DOT":"0.00001601","ECCENTRICITY":"0.00019780","GP_ID":"225067283","OBJECT_TYPE":"PAYLOAD","INCLINATION":"53.0569","SITE":"AFETR","MEAN_ANOMALY":"242.5795","RCS_SIZE":"LARGE","PERIOD":"95.591","CENTER_NAME":"EARTH","COUNTRY_CODE":"US","REV_AT_EPOCH":"14944","DECAY_DATE":null,"MEAN_MOTION":"15.06410909","EPOCH":"2023-02-10T11:48:59.044320","OBJECT_ID":"2020-035B","EPHEMERIS_TYPE":"0","PERIAPSIS":"545.810","LAUNCH_DATE":"2020-06-04","APOAPSIS":"548.550","CLASSIFICATION_TYPE":"U","OBJECT_NAME":"STARLINK-1441","SEMIMAJOR_AXIS":"6925.315","BSTAR":"0.00012630000000"},{"RCS_SIZE":"LARGE","PERIOD":"95.592","MEAN_ANOMALY":"265.9509","SITE":"AFETR","INCLINATION":"53.0544","GP_ID":"225067034","OBJECT_TYPE":"PAYLOAD","CENTER_NAME":"EARTH","COUNTRY_CODE":"US","REV_AT_EPOCH":"14941","OBJECT_ID":"2020-035C","EPHEMERIS_TYPE":"0","EPOCH":"2023-02-10T08:41:52.319040","MEAN_MOTION":"15.06396805","DECAY_DATE":null,"SEMIMAJOR_AXIS":"6925.358","BSTAR":"0.00006438300000","CLASSIFICATION_TYPE":"U","OBJECT_NAME":"STARLINK-1442","LAUNCH_DATE":"2020-06-04","APOAPSIS":"548.312","PERIAPSIS":"546.135","NORAD_CAT_ID":"45659","TIME_SYSTEM":"UTC","REF_FRAME":"TEME","FILE":"3785071","ARG_OF_PERICENTER":"94.1659","RA_OF_ASC_NODE":"69.4276","TLE_LINE2":"2 45659  53.0544  69.4276 0001572  94.1659 265.9509 15.06396805149413","MEAN_MOTION_DDOT":"0.0000000000000","ELEMENT_SET_NO":"999","MEAN_MOTION_DOT":"0.00000678","TLE_LINE1":"1 45659U 20035C   23041.36241110  .00000678  00000-0  64383-4 0  9996","MEAN_ELEMENT_THEORY":"SGP4","ECCENTRICITY":"0.00015720"},{"ECCENTRICITY":"0.00015550","TLE_LINE1":"1 45660U 20035D   23041.43706533  .00002187  00000-0  16566-3 0  9997","MEAN_ELEMENT_THEORY":"SGP4","MEAN_MOTION_DOT":"0.00002187","TLE_LINE2":"2 45660  53.0534  69.1025 0001555 111.5837 248.5318 15.06403182149430","ELEMENT_SET_NO":"999","MEAN_MOTION_DDOT":"0.0000000000000","ARG_OF_PERICENTER":"111.5837","RA_OF_ASC_NODE":"69.1025","NORAD_CAT_ID":"45660","TIME_SYSTEM":"UTC","REF_FRAME":"TEME","FILE":"3785071","LAUNCH_DATE":"2020-06-04","APOAPSIS":"548.281","PERIAPSIS":"546.127","SEMIMAJOR_AXIS":"6925.339","BSTAR":"0.00016566000000","OBJECT_NAME":"STARLINK-1443","CLASSIFICATION_TYPE":"U","MEAN_MOTION":"15.06403182","EPOCH":"2023-02-10T10:29:22.444512","DECAY_DATE":null,"OBJECT_ID":"2020-035D","EPHEMERIS_TYPE":"0","CENTER_NAME":"EARTH","COUNTRY_CODE":"US","REV_AT_EPOCH":"14943","GP_ID":"225068283","OBJECT_TYPE":"PAYLOAD","RCS_SIZE":"LARGE","PERIOD":"95.592","MEAN_ANOMALY":"248.5318","SITE":"AFETR","INCLINATION":"53.0534"}];
